NORAD_CAT_ID,OBJECT_NAME,OBJECT_TYPE,EPOCH,MEAN_MOTION,ECCENTRICITY,INCLINATION,RA_OF_ASC_NODE,ARG_OF_PERICENTER,MEAN_ANOMALY,BSTAR,MEAN_MOTION_DOT,MEAN_MOTION_DDOT,TLE_LINE0,TLE_LINE1,TLE_LINE2,SEMIMAJOR_AXIS,PERIOD,APOGEE,PERIGEE,DECAYED
53982.0,STARLINK-5120,PAYLOAD,2023-10-12 11:54:11,15.08839265,0.0001772,53.2176,201.0129,78.9075,281.2116,0.00020772,3.019e-05,0.0,0 STARLINK-5120,1 53982U 22125U   23285.49596976  .00003019  00000-0  20772-3 0  9998,2 53982  53.2176 201.0129 0001772  78.9075 281.2116 15.08839265 56729,6917.883,95.438,540.973,538.522,0.0
53982.0,STARLINK-5120,PAYLOAD,2023-10-12 18:15:44,15.08839925,0.0001676,53.2163,199.8239,77.7047,282.4132,0.00022941,3.365e-05,0.0,0 STARLINK-5120,1 53982U 22125U   23285.76093078  .00003365  00000-0  22941-3 0  9997,2 53982  53.2163 199.8239 0001676  77.7047 282.4132 15.08839925 56847,6917.881,95.438,540.905,538.586,0.0
53982.0,STARLINK-5120,PAYLOAD,2023-10-13 03:48:02,15.08856267,0.0001669,53.2161,198.038,90.214,269.9043,0.00056913,8.785e-05,0.0,0 STARLINK-5120,1 53982U 22125U   23286.15836468  .00008785  00000-0  56913-3 0  9996,2 53982  53.2161 198.0380 0001669  90.2140 269.9043 15.08856267 56905,6917.831,95.437,540.85,538.541,0.0
53982.0,STARLINK-5120,PAYLOAD,2023-10-13 11:44:58,15.08849146,0.0001507,53.2167,196.5525,88.7547,271.3618,0.00035803,5.416e-05,0.0,0 STARLINK-5120,1 53982U 22125U   23286.48956616  .00005416  00000-0  35803-3 0  9993,2 53982  53.2167 196.5525 0001507  88.7547 271.3618 15.08849146 56957,6917.852,95.437,540.76,538.675,0.0
53982.0,STARLINK-5120,PAYLOAD,2023-10-13 21:17:17,15.08853975,0.000147,53.217,194.7685,87.3398,272.7763,0.00039921,6.074e-05,0.0,0 STARLINK-5120,1 53982U 22125U   23286.88700327  .00006074  00000-0  39921-3 0  9999,2 53982  53.2170 194.7685 0001470  87.3398 272.7763 15.08853975 56935,6917.838,95.437,540.72,538.686,0.0
53982.0,STARLINK-5120,PAYLOAD,2023-10-14 03:38:48,15.08875969,0.0001775,53.2173,193.5763,98.8194,261.3,0.00096492,0.00015117,0.0,0 STARLINK-5120,1 53982U 22125U   23287.15195560  .00015117  00000-0  96492-3 0  9991,2 53982  53.2173 193.5763 0001775  98.8194 261.3000 15.08875969 57050,6917.77,95.435,540.863,538.408,0.0
53982.0,STARLINK-5120,PAYLOAD,2023-10-14 17:57:17,15.0884149,0.0001857,53.216,190.9014,88.0453,272.0752,0.00030402,4.554e-05,0.0,0 STARLINK-5120,1 53982U 22125U   23287.74812491  .00004554  00000-0  30402-3 0  9997,2 53982  53.2160 190.9014 0001857  88.0453 272.0752 15.08841490 57141,6917.876,95.437,541.025,538.456,0.0
53982.0,STARLINK-5120,PAYLOAD,2023-10-14 21:08:04,15.08828784,0.000116,53.2163,190.307,79.5069,280.6054,0.00087105,0.00013598,0.0,0 STARLINK-5120,1 53982U 22125U   23287.88060785  .00013598  00000-0  87105-3 0  9993,2 53982  53.2163 190.3070 0001160  79.5069 280.6054 15.08828784 57089,6917.915,95.438,540.582,538.977,0.0
53982.0,STARLINK-5120,PAYLOAD,2023-10-15 03:29:37,15.08829607,0.0001293,53.2169,189.1181,72.5003,287.613,0.00099471,0.00015574,0.0,0 STARLINK-5120,1 53982U 22125U   23288.14557049  .00015574  00000-0  99471-3 0  9992,2 53982  53.2169 189.1181 0001293  72.5003 287.6130 15.08829607 57203,6917.912,95.438,540.672,538.883,0.0
53982.0,STARLINK-5120,PAYLOAD,2023-10-15 20:58:51,15.08842597,0.0001305,53.2171,185.846,75.904,284.2097,0.00073142,0.00011373,0.0,0 STARLINK-5120,1 53982U 22125U   23288.87421295  .00011373  00000-0  73142-3 0  9995,2 53982  53.2171 185.8460 0001305  75.9040 284.2097 15.08842597 57232,6917.872,95.437,540.64,538.835,0.0
53982.0,STARLINK-5120,PAYLOAD,2023-10-16 09:41:56,15.08852612,0.0001189,53.216,183.4662,69.7147,290.3973,0.00046032,7.048e-05,0.0,0 STARLINK-5120,1 53982U 22125U   23289.40412876  .00007048  00000-0  46032-3 0  9992,2 53982  53.2160 183.4662 0001189  69.7147 290.3973 15.08852612 57394,6917.842,95.437,540.529,538.884,0.0
53982.0,STARLINK-5120,PAYLOAD,2023-10-17 09:32:43,15.08838485,0.0001224,53.2158,179.0066,72.7874,287.3252,1.6695e-05,-2.2e-07,0.0,0 STARLINK-5120,1 53982U 22125U   23290.39773051 -.00000022  00000-0  16695-4 0  9996,2 53982  53.2158 179.0066 0001224  72.7874 287.3252 15.08838485 57546,6917.885,95.438,540.597,538.903,0.0
53982.0,STARLINK-5120,PAYLOAD,2023-10-18 01:26:35,15.08846034,0.0001585,53.2157,176.0332,72.4848,287.6317,3.4422e-05,2.6e-06,0.0,0 STARLINK-5120,1 53982U 22125U   23291.06012896  .00000260  00000-0  34422-4 0  9995,2 53982  53.2157 176.0332 0001585  72.4848 287.6317 15.08846034 57562,6917.862,95.437,540.823,538.63,0.0
53982.0,STARLINK-5120,PAYLOAD,2023-10-18 18:55:49,15.08839981,0.0001423,53.2168,172.7603,74.9698,285.1452,0.00010527,1.388e-05,0.0,0 STARLINK-5120,1 53982U 22125U   23291.78877209  .00001388  00000-0  10527-3 0  9992,2 53982  53.2168 172.7603 0001423  74.9698 285.1452 15.08839981 57677,6917.88,95.438,540.73,538.761,0.0
53982.0,STARLINK-5120,PAYLOAD,2023-10-19 01:17:22,15.08848005,0.0003068,53.2115,171.5719,74.3437,285.7893,0.00025223,3.729e-05,0.0,0 STARLINK-5120,1 53982U 22125U   23292.05373446  .00003729  00000-0  25223-3 0  9997,2 53982  53.2115 171.5719 0003068  74.3437 285.7893 15.08848005 57791,6917.856,95.437,541.843,537.599,0.0
53982.0,STARLINK-5120,PAYLOAD,2023-10-19 21:57:22,15.08852993,0.0001984,53.2138,167.7045,92.4037,267.7182,0.00025014,3.696e-05,0.0,0 STARLINK-5120,1 53982U 22125U   23292.91484390  .00003696  00000-0  25014-3 0  9994,2 53982  53.2138 167.7045 0001984  92.4037 267.7182 15.08852993 57845,6917.841,95.437,541.078,538.333,0.0
53982.0,STARLINK-5120,PAYLOAD,2023-10-20 01:08:08,15.08854021,0.000123,53.2166,167.1084,93.641,266.4723,0.00012713,1.737e-05,0.0,0 STARLINK-5120,1 53982U 22125U   23293.04731948  .00001737  00000-0  12713-3 0  9999,2 53982  53.2166 167.1084 0001230  93.6410 266.4723 15.08854021 57868,6917.838,95.437,540.553,538.852,0.0
53982.0,STARLINK-5120,PAYLOAD,2023-10-20 15:26:37,15.08832061,0.0001515,53.2148,164.4347,89.14,270.9766,-0.00018697,-3.262e-05,0.0,0 STARLINK-5120,1 53982U 22125U   23293.64349509 -.00003262  00000-0 -18697-3 0  9997,2 53982  53.2148 164.4347 0001515  89.1400 270.9766 15.08832061 58032,6917.905,95.438,540.818,538.722,0.0
53982.0,STARLINK-5120,PAYLOAD,2023-10-20 21:48:10,15.08834272,0.0001544,53.2161,163.2464,100.3451,259.7715,-0.00013381,-2.417e-05,0.0,0 STARLINK-5120,1 53982U 22125U   23293.90845415 -.00002417  00000-0 -13381-3 0  9999,2 53982  53.2161 163.2464 0001544 100.3451 259.7715 15.08834272 57997,6917.898,95.438,540.831,538.695,0.0
53982.0,STARLINK-5120,PAYLOAD,2023-10-21 08:55:52,15.08836475,0.0001529,53.2164,161.1645,98.1386,261.9779,3.7002e-05,3.01e-06,0.0,0 STARLINK-5120,1 53982U 22125U   23294.37213546  .00000301  00000-0  37002-4 0  9990,2 53982  53.2164 161.1645 0001529  98.1386 261.9779 15.08836475 58063,6917.891,95.438,540.814,538.698,0.0
53982.0,STARLINK-5120,PAYLOAD,2023-10-21 21:38:56,15.08853285,0.000124,53.2161,158.7868,89.6688,270.4446,0.00014578,2.034e-05,0.0,0 STARLINK-5120,1 53982U 22125U   23294.90204636  .00002034  00000-0  14578-3 0  9996,2 53982  53.2161 158.7868 0001240  89.6688 270.4446 15.08853285 58142,6917.84,95.437,540.563,538.847,0.0
53982.0,STARLINK-5120,PAYLOAD,2023-10-22 18:18:58,15.08836448,0.0001661,53.2162,154.9193,111.035,249.082,8.0288e-05,9.9e-06,0.0,0 STARLINK-5120,1 53982U 22125U   23295.76317694  .00000990  00000-0  80288-4 0  9991,2 53982  53.2162 154.9193 0001661 111.0350 249.0820 15.08836448 58358,6917.891,95.438,540.905,538.607,0.0
53982.0,STARLINK-5120,PAYLOAD,2023-10-22 21:29:45,15.08833181,0.0001468,53.2161,154.3254,102.9512,257.1644,8.6293e-05,1.085e-05,0.0,0 STARLINK-5120,1 53982U 22125U   23295.89566007  .00001085  00000-0  86293-4 0  9997,2 53982  53.2161 154.3254 0001468 102.9512 257.1644 15.08833181 58291,6917.901,95.438,540.782,538.751,0.0
53982.0,STARLINK-5120,PAYLOAD,2023-10-23 21:20:31,15.08845151,0.0001519,53.2154,149.8673,98.2855,261.831,7.4308e-05,8.95e-06,0.0,0 STARLINK-5120,1 53982U 22125U   23296.88925314  .00000895  00000-0  74308-4 0  9999,2 53982  53.2154 149.8673 0001519  98.2855 261.8310 15.08845151 58440,6917.865,95.437,540.78,538.679,0.0
53982.0,STARLINK-5120,PAYLOAD,2023-10-24 00:31:17,15.08848887,0.0001471,53.2157,149.2712,100.8436,259.2721,0.00013538,1.868e-05,0.0,0 STARLINK-5120,1 53982U 22125U   23297.02173214  .00001868  00000-0  13538-3 0  9998,2 53982  53.2157 149.2712 0001471 100.8436 259.2721 15.08848887 58540,6917.853,95.437,540.736,538.701,0.0
53982.0,STARLINK-5120,PAYLOAD,2023-10-24 06:52:50,15.08846678,0.0001459,53.2159,148.0809,96.0641,264.0517,6.1827e-05,6.96e-06,0.0,0 STARLINK-5120,1 53982U 22125U   23297.28669130  .00000696  00000-0  61827-4 0  9996,2 53982  53.2159 148.0809 0001459  96.0641 264.0517 15.08846678 58505,6917.86,95.437,540.734,538.716,0.0
53982.0,STARLINK-5120,PAYLOAD,2023-10-25 00:22:05,15.08836275,0.0001478,53.2159,144.8107,98.2419,261.874,6.5573e-05,7.56e-06,0.0,0 STARLINK-5120,1 53982U 22125U   23298.01533918  .00000756  00000-0  65573-4 0  9991,2 53982  53.2159 144.8107 0001478  98.2419 261.8740 15.08836275 58693,6917.892,95.438,540.779,538.734,0.0
53982.0,STARLINK-5120,PAYLOAD,2023-10-26 00:12:52,15.08846387,0.0001456,53.2165,140.3498,99.9031,260.2126,9.2677e-05,1.188e-05,0.0,0 STARLINK-5120,1 53982U 22125U   23299.00893574  .00001188  00000-0  92677-4 0  9993,2 53982  53.2165 140.3498 0001456  99.9031 260.2126 15.08846387 58841,6917.861,95.437,540.733,538.719,0.0
53982.0,STARLINK-5120,PAYLOAD,2023-10-26 19:17:29,15.08842134,0.0001412,53.2159,136.7813,98.6516,261.4636,0.00013291,1.828e-05,0.0,0 STARLINK-5120,1 53982U 22125U   23299.80381726  .00001828  00000-0  13291-3 0  9997,2 53982  53.2159 136.7813 0001412  98.6516 261.4636 15.08842134 58968,6917.874,95.437,540.716,538.762,0.0
53982.0,STARLINK-5120,PAYLOAD,2023-10-26 22:28:15,15.08846591,0.0001409,53.2163,136.1869,91.8173,268.298,0.00016377,2.32e-05,0.0,0 STARLINK-5120,1 53982U 22125U   23299.93629453  .00002320  00000-0  16377-3 0  9999,2 53982  53.2163 136.1869 0001409  91.8173 268.2980 15.08846591 58900,6917.86,95.437,540.7,538.751,0.0
